{"type": "FeatureCollection", "features": [ {"type": "Feature", "properties": {"norad_id": 30466, "name": "FENGYUN 1C DEB", "group": "fengyun-1c-debris", "lat": 59.59021062031163, "lon": -146.0473194163183, "alt_km": 783.928415960776, "timestamp": "2025-12-04T17:48:40.442339+00:00", "meta": {"OBJECT_NAME": "FENGYUN 1C DEB", "OBJECT_ID": "1999-025AGD", "EPOCH": "2025-12-04T02:19:35.134752", "MEAN_MOTION": 14.22456912, "ECCENTRICITY": 0.01170483, "INCLINATION": 98.6563, "RA_OF_ASC_NODE": 18.2754, "ARG_OF_PERICENTER": 49.354, "MEAN_ANOMALY": 6.4772, "EPHEMERIS_TYPE": 0, "CLASSIFICATION_TYPE": "U", "NORAD_CAT_ID": 30466, "ELEMENT_SET_NO": 999, "REV_AT_EPOCH": 97228, "BSTAR": 0.0024811341, "MEAN_MOTION_DOT": 5.893e-05, "MEAN_MOTION_DDOT": 0}, "tle": {"line1": "1 30466U 99025AGD 25338.09693443  .00005893  00000+0  24811-2 0  9995", "line2": "2 30466  98.6563  18.2754 0117048  49.3540   6.4772 14.22456912972281"}}, "geometry": {"type": "Point", "coordinates": [-146.0473194163183, 59.59021062031163]}}, {"type": "Feature", "properties": {"norad_id": 30467, "name": "FENGYUN 1C DEB", "group": "fengyun-1c-debris", "lat": 58.52418908879593, "lon": -7.985828595234383, "alt_km": 829.0920020312433, "timestamp": "2025-12-04T17:48:40.442361+00:00", "meta": {"OBJECT_NAME": "FENGYUN 1C DEB", "OBJECT_ID": "1999-025AGE", "EPOCH": "2025-12-04T00:52:25.455936", "MEAN_MOTION": 14.1722826, "ECCENTRICITY": 0.00652923, "INCLINATION": 98.6799, "RA_OF_ASC_NODE": 5.7741, "ARG_OF_PERICENTER": 152.1434, "MEAN_ANOMALY": 269.6607, "EPHEMERIS_TYPE": 0, "CLASSIFICATION_TYPE": "U", "NORAD_CAT_ID": 30467, "ELEMENT_SET_NO": 999, "REV_AT_EPOCH": 97054, "BSTAR": 0.0016865921, "MEAN_MOTION_DOT": 3.434e-05, "MEAN_MOTION_DDOT": 0}, "tle": {"line1": "1 30467U 99025AGE 25338.03640574  .00003434  00000+0  16866-2 0  9997", "line2": "2 30467  98.6799   5.7741 0065292 152.1434 269.6607 14.17228260970542"}}, "geometry": {"type": "Point", "coordinates": [-7.985828595234383, 58.52418908879593]}}, {"type": "Feature", "properties": {"norad_id": 30468, "name": "FENGYUN 1C DEB", "group": "fengyun-1c-debris", "lat": -80.94183780692214, "lon": 140.39319163408666, "alt_km": 876.4768754267961, "timestamp": "2025-12-04T17:48:40.442379+00:00", "meta": {"OBJECT_NAME": "FENGYUN 1C DEB", "OBJECT_ID": "1999-025AGF", "EPOCH": "2025-12-04T04:57:36.823680", "MEAN_MOTION": 14.20626586, "ECCENTRICITY": 0.00725666, "INCLINATION": 98.9233, "RA_OF_ASC_NODE": 59.6238, "ARG_OF_PERICENTER": 64.7989, "MEAN_ANOMALY": 350.1864, "EPHEMERIS_TYPE": 0, "CLASSIFICATION_TYPE": "U", "NORAD_CAT_ID": 30468, "ELEMENT_SET_NO": 999, "REV_AT_EPOCH": 96689, "BSTAR": 0.0032022025, "MEAN_MOTION_DOT": 7.039e-05, "MEAN_MOTION_DDOT": 0}, "tle": {"line1": "1 30468U 99025AGF 25338.20667620  .00007039  00000+0  32022-2 0  9995", "line2": "2 30468  98.9233  59.6238 0072566  64.7989 350.1864 14.20626586966894"}}, "geometry": {"type": "Point", "coordinates": [140.39319163408666, -80.94183780692214]}}, {"type": "Feature", "properties": {"norad_id": 30469, "name": "FENGYUN 1C DEB", "group": "fengyun-1c-debris", "lat": -55.66471276323844, "lon": -2.5454037041542237, "alt_km": 829.5653153103585, "timestamp": "2025-12-04T17:48:40.442390+00:00", "meta": {"OBJECT_NAME": "FENGYUN 1C DEB", "OBJECT_ID": "1999-025AGG", "EPOCH": "2025-12-04T01:56:18.578112", "MEAN_MOTION": 13.96481287, "ECCENTRICITY": 0.01584854, "INCLINATION": 98.4786, "RA_OF_ASC_NODE": 189.4584, "ARG_OF_PERICENTER": 194.0242, "MEAN_ANOMALY": 318.1958, "EPHEMERIS_TYPE": 0, "CLASSIFICATION_TYPE": "U", "NORAD_CAT_ID": 30469, "ELEMENT_SET_NO": 999, "REV_AT_EPOCH": 95585, "BSTAR": 0.0012174843, "MEAN_MOTION_DOT": 1.831e-05, "MEAN_MOTION_DDOT": 0}, "tle": {"line1": "1 30469U 99025AGG 25338.08077058  .00001831  00000+0  12175-2 0  9993", "line2": "2 30469  98.4786 189.4584 0158485 194.0242 318.1958 13.96481287955854"}}, "geometry": {"type": "Point", "coordinates": [-2.5454037041542237, -55.66471276323844]}}, {"type": "Feature", "properties": {"norad_id": 30471, "name": "FENGYUN 1C DEB", "group": "fengyun-1c-debris", "lat": -15.897987523712194, "lon": -116.35958541012255, "alt_km": 841.2988671231205, "timestamp": "2025-12-04T17:48:40.442400+00:00", "meta": {"OBJECT_NAME": "FENGYUN 1C DEB", "OBJECT_ID": "1999-025AGJ", "EPOCH": "2025-12-04T05:14:52.350144", "MEAN_MOTION": 14.13538073, "ECCENTRICITY": 0.00817157, "INCLINATION": 99.055, "RA_OF_ASC_NODE": 65.7139, "ARG_OF_PERICENTER": 277.5031, "MEAN_ANOMALY": 137.0584, "EPHEMERIS_TYPE": 0, "CLASSIFICATION_TYPE": "U", "NORAD_CAT_ID": 30471, "ELEMENT_SET_NO": 999, "REV_AT_EPOCH": 96322, "BSTAR": 0.003599349, "MEAN_MOTION_DOT": 6.958e-05, "MEAN_MOTION_DDOT": 0}, "tle": {"line1": "1 30471U 99025AGJ 25338.21866146  .00006958  00000+0  35993-2 0  9993", "line2": "2 30471  99.0550  65.7139 0081715 277.5031 137.0584 14.13538073963228"}}, "geometry": {"type": "Point", "coordinates": [-116.35958541012255, -15.897987523712194]}}, {"type": "Feature", "properties": {"norad_id": 30472, "name": "FENGYUN 1C DEB", "group": "fengyun-1c-debris", "lat": -51.304869612870185, "lon": -111.3696367138607, "alt_km": 737.9136962885887, "timestamp": "2025-12-04T17:48:40.442410+00:00", "meta": {"OBJECT_NAME": "FENGYUN 1C DEB", "OBJECT_ID": "1999-025AGK", "EPOCH": "2025-12-04T07:09:20.902176", "MEAN_MOTION": 14.53516776, "ECCENTRICITY": 0.00388887, "INCLINATION": 98.6528, "RA_OF_ASC_NODE": 79.1311, "ARG_OF_PERICENTER": 105.4599, "MEAN_ANOMALY": 324.4021, "EPHEMERIS_TYPE": 0, "CLASSIFICATION_TYPE": "U", "NORAD_CAT_ID": 30472, "ELEMENT_SET_NO": 999, "REV_AT_EPOCH": 97918, "BSTAR": 0.0067103437, "MEAN_MOTION_DOT": 0.00028342, "MEAN_MOTION_DDOT": 0}, "tle": {"line1": "1 30472U 99025AGK 25338.29815859  .00028342  00000+0  67103-2 0  9996", "line2": "2 30472  98.6528  79.1311 0038888 105.4599 324.4021 14.53516776979181"}}, "geometry": {"type": "Point", "coordinates": [-111.3696367138607, -51.304869612870185]}}, {"type": "Feature", "properties": {"norad_id": 30474, "name": "FENGYUN 1C DEB", "group": "fengyun-1c-debris", "lat": -26.578824379655845, "lon": -127.19309290398144, "alt_km": 788.5891505521367, "timestamp": "2025-12-04T17:48:40.442420+00:00", "meta": {"OBJECT_NAME": "FENGYUN 1C DEB", "OBJECT_ID": "1999-025AGM", "EPOCH": "2025-12-04T03:45:37.312704", "MEAN_MOTION": 14.37581344, "ECCENTRICITY": 0.00230908, "INCLINATION": 98.9297, "RA_OF_ASC_NODE": 56.7108, "ARG_OF_PERICENTER": 31.275, "MEAN_ANOMALY": 27.3497, "EPHEMERIS_TYPE": 0, "CLASSIFICATION_TYPE": "U", "NORAD_CAT_ID": 30474, "ELEMENT_SET_NO": 999, "REV_AT_EPOCH": 97270, "BSTAR": 0.0047859414, "MEAN_MOTION_DOT": 0.0001438, "MEAN_MOTION_DDOT": 0}, "tle": {"line1": "1 30474U 99025AGM 25338.15668186  .00014380  00000+0  47859-2 0  9995", "line2": "2 30474  98.9297  56.7108 0023090  31.2750  27.3497 14.37581344972700"}}, "geometry": {"type": "Point", "coordinates": [-127.19309290398144, -26.578824379655845]}}, {"type": "Feature", "properties": {"norad_id": 30475, "name": "FENGYUN 1C DEB", "group": "fengyun-1c-debris", "lat": -3.8257831866491663, "lon": -160.21417522062455, "alt_km": 863.1588855567361, "timestamp": "2025-12-04T17:48:40.442431+00:00", "meta": {"OBJECT_NAME": "FENGYUN 1C DEB", "OBJECT_ID": "1999-025AGN", "EPOCH": "2025-12-03T21:25:30.564768", "MEAN_MOTION": 14.15638603, "ECCENTRICITY": 0.00421023, "INCLINATION": 98.7885, "RA_OF_ASC_NODE": 19.5412, "ARG_OF_PERICENTER": 316.6135, "MEAN_ANOMALY": 221.0278, "EPHEMERIS_TYPE": 0, "CLASSIFICATION_TYPE": "U", "NORAD_CAT_ID": 30475, "ELEMENT_SET_NO": 999, "REV_AT_EPOCH": 96826, "BSTAR": 0.0012207767, "MEAN_MOTION_DOT": 2.368e-05, "MEAN_MOTION_DDOT": 0}, "tle": {"line1": "1 30475U 99025AGN 25337.89271487  .00002368  00000+0  12208-2 0  9993", "line2": "2 30475  98.7885  19.5412 0042102 316.6135 221.0278 14.15638603968262"}}, "geometry": {"type": "Point", "coordinates": [-160.21417522062455, -3.8257831866491663]}}, {"type": "Feature", "properties": {"norad_id": 30476, "name": "FENGYUN 1C DEB", "group": "fengyun-1c-debris", "lat": 27.854778270556253, "lon": -159.44836740399023, "alt_km": 853.1402852606216, "timestamp": "2025-12-04T17:48:40.442441+00:00", "meta": {"OBJECT_NAME": "FENGYUN 1C DEB", "OBJECT_ID": "1999-025AGP", "EPOCH": "2025-12-04T02:08:45.239136", "MEAN_MOTION": 14.20829997, "ECCENTRICITY": 0.00447996, "INCLINATION": 99.1252, "RA_OF_ASC_NODE": 15.0055, "ARG_OF_PERICENTER": 324.7023, "MEAN_ANOMALY": 90.2179, "EPHEMERIS_TYPE": 0, "CLASSIFICATION_TYPE": "U", "NORAD_CAT_ID": 30476, "ELEMENT_SET_NO": 999, "REV_AT_EPOCH": 96722, "BSTAR": 0.0026996793, "MEAN_MOTION_DOT": 5.849e-05, "MEAN_MOTION_DDOT": 0}, "tle": {"line1": "1 30476U 99025AGP 25338.08941249  .00005849  00000+0  26997-2 0  9993", "line2": "2 30476  99.1252  15.0055 0044799 324.7023  90.2179 14.20829997967225"}}, "geometry": {"type": "Point", "coordinates": [-159.44836740399023, 27.854778270556253]}}, {"type": "Feature", "properties": {"norad_id": 30477, "name": "FENGYUN 1C DEB", "group": "fengyun-1c-debris", "lat": 71.68553024058012, "lon": 32.39671970825308, "alt_km": 1399.0312429898213, "timestamp": "2025-12-04T17:48:40.442451+00:00", "meta": {"OBJECT_NAME": "FENGYUN 1C DEB", "OBJECT_ID": "1999-025AGQ", "EPOCH": "2025-12-03T21:45:23.531904", "MEAN_MOTION": 13.23770545, "ECCENTRICITY": 0.0431472, "INCLINATION": 99.4254, "RA_OF_ASC_NODE": 61.7592, "ARG_OF_PERICENTER": 298.2366, "MEAN_ANOMALY": 112.4586, "EPHEMERIS_TYPE": 0, "CLASSIFICATION_TYPE": "U", "NORAD_CAT_ID": 30477, "ELEMENT_SET_NO": 999, "REV_AT_EPOCH": 90602, "BSTAR": 0.0038132819, "MEAN_MOTION_DOT": 2.623e-05, "MEAN_MOTION_DDOT": 0}, "tle": {"line1": "1 30477U 99025AGQ 25337.90652236  .00002623  00000+0  38133-2 0  9991", "line2": "2 30477  99.4254  61.7592 0431472 298.2366 112.4586 13.23770545906024"}}, "geometry": {"type": "Point", "coordinates": [32.39671970825308, 71.68553024058012]}}]}